MUOS-1                  
1 38093U 12009A   23016.55539462 -.00000107  00000+0  00000+0 0  9993
2 38093   3.2007  37.1877 0054132 355.6398 182.8248  1.00271531 39931
INTELSAT 22 (IS-22)     
1 38098U 12011A   23016.51800084 -.00000037  00000+0  00000+0 0  9990
2 38098   0.0109  45.4206 0002521 244.6381  84.1906  1.00271985 39305
APSTAR 7                
1 38107U 12013A   23016.51887250 -.00000080  00000+0  00000+0 0  9991
2 38107   0.0218 100.7520 0002485 195.5429  82.6732  1.00271140 39298
YAHSAT 1B               
1 38245U 12016A   23016.44138287  .00000148  00000+0  00000+0 0  9992
2 38245   0.0297  94.5148 0002482 221.4448   6.1317  1.00270443 33087
AEHF-2 (USA 235)        
1 38254U 12019A   23016.55661493 -.00000141  00000+0  00000+0 0  9991
2 38254   3.8001  61.8899 0003912 231.4133 288.5706  1.00273403 38343
JCSAT-13                
1 38331U 12023A   23016.56801017 -.00000335  00000+0  00000+0 0  9996
2 38331   0.0185  48.9715 0001677 250.0085 145.2380  1.00270352 39015
VINASAT-2               
1 38332U 12023B   23016.61873999 -.00000308  00000+0  00000+0 0  9991
2 38332   0.0318 303.2571 0002140  12.3234 154.7778  1.00270363 34150
NIMIQ 6                 
1 38342U 12026A   23016.55722507 -.00000152  00000+0  00000+0 0  9993
2 38342   0.0097 349.3026 0002463 308.9768 286.9457  1.00271290 37914
CHINASAT 2A (ZX 2A)     
1 38352U 12028A   23016.52323074 -.00000270  00000+0  00000+0 0  9990
2 38352   0.0412 216.1719 0002548 120.9864  65.1144  1.00267709 39135
INTELSAT 19 (IS-19)     
1 38356U 12030A   23016.53674130 -.00000035  00000+0  00000+0 0  9999
2 38356   0.0142   9.3762 0003095 295.5234 170.0281  1.00272095 37935
ECHOSTAR 17             
1 38551U 12035A   23016.33887689 -.00000053  00000+0  00000+0 0  9994
2 38551   0.0187  48.4517 0001913 243.5424 198.4039  1.00270486 38550
METEOSAT-10 (MSG-3)     
1 38552U 12035B   23016.29036007  .00000085  00000+0  00000+0 0  9994
2 38552   1.8781  51.1936 0000712 206.1830 332.3860  1.00278824 38340
SES-5                   
1 38652U 12036A   23016.28948841  .00000055  00000+0  00000+0 0  9990
2 38652   0.0597 290.7964 0001814 357.9890 295.8646  1.00269321 31973
TIANLIAN 1-03           
1 38730U 12040A   23016.29253919  .00000144  00000+0  00000+0 0  9997
2 38730   2.5535  88.8319 0004281 317.8494 194.4838  1.00272165 38474
INTELSAT 20 (IS-20)     
1 38740U 12043A   23016.44556678 -.00000003  00000+0  00000+0 0  9991
2 38740   0.0227 109.6818 0002504  84.9525 149.8795  1.00271332 38230
HYLAS 2                 
1 38741U 12043B   23016.21160521  .00000176  00000+0  00000+0 0  9995
2 38741   0.0476 264.9521 0001635  33.6576 283.9827  1.00270977 38256
INTELSAT 21 (IS-21)     
1 38749U 12045A   23016.49202569 -.00000263  00000+0  00000+0 0  9992
2 38749   0.0213  76.0506 0001805 220.9091 297.8426  1.00272025 38020
ASTRA 2F                
1 38778U 12051A   23016.50928435  .00000172  00000+0  00000+0 0  9998
2 38778   0.0944 252.7770 0003740   0.0090  74.4114  1.00268860 37782
GSAT-10                 
1 38779U 12051B   23016.52017997 -.00000143  00000+0  00000+0 0  9992
2 38779   0.0713 270.4445 0004344 357.7695 117.7381  1.00270937 37782
INTELSAT 23 (IS-23)     
1 38867U 12057A   23016.49307168 -.00000263  00000+0  00000+0 0  9997
2 38867   0.0187  62.6701 0001534 289.5904 247.8964  1.00268624 37438
BEIDOU 16               
1 38953U 12059A   23016.52035431 -.00000155  00000+0  00000+0 0  9990
2 38953   1.4514  82.3229 0009660 293.1346  11.4967  1.00274684 37392
LUCH 5B                 
1 38977U 12061A   23016.42865678 -.00000120  00000+0  00000+0 0  9994
2 38977   7.7523  60.9997 0001773 172.3586  20.2085  1.00271222 37666
YAMAL 300K              
1 38978U 12061B   23016.54005358  .00000093  00000+0  00000+0 0  9997
2 38978   0.0190 107.4905 0000851 282.8601 102.7244  1.00271637 37124
STAR ONE C3             
1 38991U 12062A   23016.56036302 -.00000227  00000+0  00000+0 0  9998
2 38991   0.0432 271.4616 0002005  25.2430 305.7588  1.00272779 37248
EUTELSAT 21B            
1 38992U 12062B   23016.50788971  .00000151  00000+0  00000+0 0  9994
2 38992   0.0641   7.4241 0002748 291.4585  21.1999  1.00270538 37329
ECHOSTAR 16             
1 39008U 12065A   23016.27623934 -.00000260  00000+0  00000+0 0  9999
2 39008   0.0157  65.3013 0001987 240.9498 207.1320  1.00270821 37112
CHINASAT 12 (ZX 12)     
1 39017U 12067A   23016.59278837 -.00000185  00000+0  00000+0 0  9990
2 39017   0.0180 100.7651 0002947 192.1216 123.7607  1.00271121 37208
EUTELSAT 70B            
1 39020U 12069A   23016.51765219 -.00000022  00000+0  00000+0 0  9993
2 39020   0.0600  12.7336 0005576 244.1953 115.5786  1.00271828 36994
YAMAL 402               
1 39022U 12070A   23016.58633816  .00000107  00000+0  00000+0 0  9994
2 39022   0.0297 110.4451 0004064 189.8440  81.4414  1.00271660 37094
SKYNET 5D               
1 39034U 12075A   23016.51416559  .00000121  00000+0  00000+0 0  9994
2 39034   0.0700   4.2586 0003804 291.9146  57.3279  1.00270124 36649
MEXSAT 3                
1 39035U 12075B   23016.55251816 -.00000003  00000+0  00000+0 0  9992
2 39035   0.0092  30.1058 0001998 257.0138 272.6959  1.00270927 36673
TDRS 11                 
1 39070U 13004A   23016.54057656  .00000102  00000+0  00000+0 0  9998
2 39070   2.7730 352.7386 0003719  41.9751 101.1563  1.00269292 34185
AMAZONAS 3              
1 39078U 13006A   23016.49150271 -.00000260  00000+0  00000+0 0  9995
2 39078   0.0542 236.0562 0004310  29.4649 326.1137  1.00271519 32392
AZERSPACE 1             
1 39079U 13006B   23016.51277095  .00000155  00000+0  00000+0 0  9995
2 39079   0.0218 304.5841 0002193  19.9811  21.6892  1.00269739 36295
SBIRS GEO-2 (USA 241)   
1 39120U 13011A   23016.49603528 -.00000237  00000+0  00000+0 0  9991
2 39120   2.1629  32.2575 0002449 256.4260 327.5348  1.00271261 36028
EUTELSAT 117 WEST A     
1 39122U 13012A   23016.55208234  .00000009  00000+0  00000+0 0  9992
2 39122   0.0090  47.3324 0002645 254.7856 255.5349  1.00271828 35937
ANIK G1                 
1 39127U 13014A   23016.55399997 -.00000052  00000+0  00000+0 0  9995
2 39127   0.0217  44.3097 0002562 248.2661 275.2797  1.00270839 35743
CHINASAT 11 (ZX 11)     
1 39157U 13020A   23016.59488032 -.00000269  00000+0  00000+0 0  9998
2 39157   0.0098 270.8821 0001779  20.1697 136.7851  1.00271931 35644
EUTELSAT 7B             
1 39163U 13022A   23016.36153979  .00000070  00000+0  00000+0 0  9990
2 39163   0.0753 337.2088 0005177 359.5597 275.9170  1.00273148 35457
WGS F5 (USA 243)        
1 39168U 13024A   23016.42142209 -.00000262  00000+0  00000+0 0  9992
2 39168   0.0181  69.9180 0000427 293.9807 210.9065  1.00272215 34665
SES-6                   
1 39172U 13026A   23016.49551229 -.00000239  00000+0  00000+0 0  9996
2 39172   0.0534 291.5485 0002082 349.7203 332.2717  1.00270942 35211
IRNSS-1A                
1 39199U 13034A   23016.08421501  .00000076  00000+0  00000+0 0  9996
2 39199  32.9035  82.1580 0020733 190.3444 288.0216  1.00273331 34856
MUOS-2                  
1 39206U 13036A   23016.53996640  .00000084  00000+0  00000+0 0  9997
2 39206   2.8924  29.7634 0051859 184.2406 279.0585  1.00270016 34685
ALPHASAT                
1 39215U 13038A   23016.50858704  .00000155  00000+0  00000+0 0  9993
2 39215   2.7859  11.8495 0001821 289.2505  22.5233  1.00273202 34757
INSAT-3D                
1 39216U 13038B   23016.52000564 -.00000133  00000+0  00000+0 0  9996
2 39216   0.0188  70.2832 0001339 218.7228  95.9418  1.00268520 34791
WGS F6 (USA 244)        
1 39222U 13041A   23016.40494792  .00000111  00000+0  00000+0 0  9999
2 39222   0.0181  86.7999 0000260 247.1486 152.2001  1.00268878 33544
ES'HAIL 1               
1 39233U 13044A   23016.50867420  .00000165  00000+0  00000+0 0  9996
2 39233   0.0519 345.4180 0001899 317.4807  21.4125  1.00275052 34115
GSAT-7                  
1 39234U 13044B   23016.51843667 -.00000055  00000+0  00000+0 0  9994
2 39234   0.0288  91.8810 0009436 183.4278 101.0052  1.00271026 32815
AMOS-4                  
1 39237U 13045A   23016.51660620  .00000029  00000+0  00000+0 0  9994
2 39237   0.0140  54.3765 0003166 261.2408  51.0140  1.00271563 34441
AEHF-3 (USA 246)        
1 39256U 13050A   23016.54432465  .00000154  00000+0  00000+0 0  9997
2 39256   2.2020  73.5616 0058401 187.2838 255.7166  1.00270786 33162
ASTRA 2E                
1 39285U 13056A   23016.50928435  .00000172  00000+0  00000+0 0  9998
2 39285   0.0587 346.5155 0002663 317.5545  23.4305  1.00268560 33927
FM-6                    
1 39360U 13058A   23016.40878316  .00000005  00000+0  00000+0 0  9990
2 39360   0.0043   6.0455 0000596 193.4623 307.0620  1.00272994 33556
RADUGA-1M 3             
1 39375U 13062A   23015.95604788  .00000175  00000+0  00000+0 0  9998
2 39375   2.7720  87.4251 0001286 157.1929 249.6422  1.00273399 33611
SES-8                   
1 39460U 13071A   23016.52253341 -.00000248  00000+0  00000+0 0  9994
2 39460   0.0486 250.7153 0000989  95.5686  52.5207  1.00271251 31914
INMARSAT 5-F1           
1 39476U 13073A   23016.10118880  .00000050  00000+0  00000+0 0  9995
2 39476   0.0184  51.9962 0000453  20.4955 141.8097  1.00268259 33079
TKSAT-1 (TUPAC KATARI)  
1 39481U 13075A   23016.55800956 -.00000173  00000+0  00000+0 0  9991
2 39481   0.0361 200.5002 0002724 108.3489 280.5862  1.00270766 33088
EXPRESS-AM5             
1 39487U 13077A   23016.31638834 -.00000258  00000+0  00000+0 0  9991
2 39487   0.0421 234.7447 0001050 211.8684 282.7998  1.00272056 33832
GSAT-14                 
1 39498U 14001A   23016.51834950 -.00000055  00000+0  00000+0 0  9995
2 39498   0.0117 298.2021 0005588 339.8703  98.2077  1.00271412 33071
THAICOM 6               
1 39500U 14002A   23016.51930832 -.00000100  00000+0  00000+0 0  9997
2 39500   0.0650 109.3368 0000953 140.9379 130.8598  1.00272219 32946
